{
  "norad_id": 58725,
  "name": "STARLINK-30856",
  "history": [
    {
      "epoch": "2026-03-28T21:01:08.155776",
      "apogee_km": 476.0612839663463,
      "perigee_km": 474.3068337752766,
      "latitude_deg": 44.61874326654577,
      "longitude_deg": 136.5757286399603,
      "semi_major_axis_km": 6853.321058870812,
      "eccentricity": 0.000128,
      "inclination_deg": 53.161,
      "raan_deg": 140.7539,
      "arg_perigee_deg": 76.4042,
      "mean_anomaly_deg": 283.7101,
      "mean_motion_rev_day": 15.30210386
    }
  ]
}