{"fetched_at":"2026-03-29T16:36:15Z","count":15609,"tles":[{"name":"STARLINK-30856","line1":"1 58725U 24002W   26087.87578884 -.00003563  00000+0 -10820-3 0  9995","line2":"2 58725  53.1610 140.7539 0001280  76.4042 283.7101 15.30210386124950","category":"Starlink"}]}